2024-092D               
1 59776U 24092D   26068.88372108  .00024443  00000+0  76511-3 0  9999
2 59776  97.6418 198.2302 0008340 141.9853 218.1979 15.33078357100518
STARLINK-34877          
1 65630U 25210J   26068.88731514  .00032895  00000+0  11172-2 0  9999
2 65630  53.1580 306.0005 0000663 109.9610 250.1462 15.30218042 27767
